[
  {
    "OBJECT_NAME": "STARLINK-31628",
    "OBJECT_ID": "24057Y",
    "EPOCH": "2025-11-10T19:00:24.089472",
    "MEAN_MOTION": 15.27586689,
    "ECCENTRICITY": 0.0001251,
    "INCLINATION": 43.0011,
    "RA_OF_ASC_NODE": 138.6719,
    "ARG_OF_PERICENTER": 257.4381,
    "MEAN_ANOMALY": 102.633,
    "EPHEMERIS_TYPE": 0,
    "CLASSIFICATION_TYPE": "U",
    "NORAD_CAT_ID": 59342,
    "ELEMENT_SET_NO": 999,
    "REV_AT_EPOCH": 9165,
    "BSTAR": 8.4375e-05,
    "MEAN_MOTION_DOT": 2.061e-05,
    "MEAN_MOTION_DDOT": 0.0,
    "TLE_LINE1": "1 59342U 24057Y   25314.79194548  .00002061  00000+0  84375-4 0  9992",
    "TLE_LINE2": "2 59342  43.0011 138.6719 0001251 257.4381 102.6330 15.27586689 91651",
    "COMMENT": "Grouped by shell and plane from TLE"
  },
  {
    "OBJECT_NAME": "STARLINK-31472",
    "OBJECT_ID": "24090A",
    "EPOCH": "2025-11-10T22:23:26.762496",
    "MEAN_MOTION": 15.26764899,
    "ECCENTRICITY": 0.0001117,
    "INCLINATION": 42.9992,
    "RA_OF_ASC_NODE": 133.6772,
    "ARG_OF_PERICENTER": 266.2352,
    "MEAN_ANOMALY": 93.8371,
    "EPHEMERIS_TYPE": 0,
    "CLASSIFICATION_TYPE": "U",
    "NORAD_CAT_ID": 59730,
    "ELEMENT_SET_NO": 999,
    "REV_AT_EPOCH": 8528,
    "BSTAR": 0.00042644,
    "MEAN_MOTION_DOT": 0.00011205,
    "MEAN_MOTION_DDOT": 0.0,
    "TLE_LINE1": "1 59730U 24090A   25314.93294864  .00011205  00000+0  42644-3 0  9990",
    "TLE_LINE2": "2 59730  42.9992 133.6772 0001117 266.2352  93.8371 15.26764899 85287",
    "COMMENT": "Grouped by shell and plane from TLE"
  },
  {
    "OBJECT_NAME": "STARLINK-31817",
    "OBJECT_ID": "24090B",
    "EPOCH": "2025-11-11T05:06:32.100192",
    "MEAN_MOTION": 15.27576015,
    "ECCENTRICITY": 0.0001885,
    "INCLINATION": 43.0044,
    "RA_OF_ASC_NODE": 132.3379,
    "ARG_OF_PERICENTER": 261.5139,
    "MEAN_ANOMALY": 98.5499,
    "EPHEMERIS_TYPE": 0,
    "CLASSIFICATION_TYPE": "U",
    "NORAD_CAT_ID": 59731,
    "ELEMENT_SET_NO": 999,
    "REV_AT_EPOCH": 8532,
    "BSTAR": 6.188900000000001e-07,
    "MEAN_MOTION_DOT": -2.45e-06,
    "MEAN_MOTION_DDOT": 0.0,
    "TLE_LINE1": "1 59731U 24090B   25315.21287153 -.00000245  00000+0  61889-6 0  9994",
    "TLE_LINE2": "2 59731  43.0044 132.3379 0001885 261.5139  98.5499 15.27576015 85320",
    "COMMENT": "Grouped by shell and plane from TLE"
  },
  {
    "OBJECT_NAME": "STARLINK-31833",
    "OBJECT_ID": "24090D",
    "EPOCH": "2025-11-10T18:53:41.803296",
    "MEAN_MOTION": 15.27583338,
    "ECCENTRICITY": 0.0001419,
    "INCLINATION": 43.0015,
    "RA_OF_ASC_NODE": 135.1556,
    "ARG_OF_PERICENTER": 269.7403,
    "MEAN_ANOMALY": 90.3286,
    "EPHEMERIS_TYPE": 0,
    "CLASSIFICATION_TYPE": "U",
    "NORAD_CAT_ID": 59733,
    "ELEMENT_SET_NO": 999,
    "REV_AT_EPOCH": 8525,
    "BSTAR": 4.7518e-05,
    "MEAN_MOTION_DOT": 1.046e-05,
    "MEAN_MOTION_DDOT": 0.0,
    "TLE_LINE1": "1 59733U 24090D   25314.78728939  .00001046  00000+0  47518-4 0  9999",
    "TLE_LINE2": "2 59733  43.0015 135.1556 0001419 269.7403  90.3286 15.27583338 85257",
    "COMMENT": "Grouped by shell and plane from TLE"
  },
  {
    "OBJECT_NAME": "STARLINK-31707",
    "OBJECT_ID": "24090G",
    "EPOCH": "2025-11-10T18:27:47.277216",
    "MEAN_MOTION": 15.27591508,
    "ECCENTRICITY": 0.0001016,
    "INCLINATION": 43.0005,
    "RA_OF_ASC_NODE": 135.0188,
    "ARG_OF_PERICENTER": 242.1504,
    "MEAN_ANOMALY": 117.9245,
    "EPHEMERIS_TYPE": 0,
    "CLASSIFICATION_TYPE": "U",
    "NORAD_CAT_ID": 59736,
    "ELEMENT_SET_NO": 999,
    "REV_AT_EPOCH": 8525,
    "BSTAR": 7.101400000000001e-05,
    "MEAN_MOTION_DOT": 1.693e-05,
    "MEAN_MOTION_DDOT": 0.0,
    "TLE_LINE1": "1 59736U 24090G   25314.76929719  .00001693  00000+0  71014-4 0  9995",
    "TLE_LINE2": "2 59736  43.0005 135.0188 0001016 242.1504 117.9245 15.27591508 85258",
    "COMMENT": "Grouped by shell and plane from TLE"
  },
  {
    "OBJECT_NAME": "STARLINK-31821",
    "OBJECT_ID": "24090H",
    "EPOCH": "2025-11-10T18:44:28.282560",
    "MEAN_MOTION": 15.27567524,
    "ECCENTRICITY": 0.0001279,
    "INCLINATION": 43.0014,
    "RA_OF_ASC_NODE": 135.1071,
    "ARG_OF_PERICENTER": 263.1159,
    "MEAN_ANOMALY": 96.9547,
    "EPHEMERIS_TYPE": 0,
    "CLASSIFICATION_TYPE": "U",
    "NORAD_CAT_ID": 59737,
    "ELEMENT_SET_NO": 999,
    "REV_AT_EPOCH": 8525,
    "BSTAR": 0.0,
    "MEAN_MOTION_DOT": -9.52e-06,
    "MEAN_MOTION_DDOT": 0.0,
    "TLE_LINE1": "1 59737U 24090H   25314.78088290 -.00000952  00000+0 -25078-4 0  9996",
    "TLE_LINE2": "2 59737  43.0014 135.1071 0001279 263.1159  96.9547 15.27567524 85253",
    "COMMENT": "Grouped by shell and plane from TLE"
  },
  {
    "OBJECT_NAME": "STARLINK-31819",
    "OBJECT_ID": "24090J",
    "EPOCH": "2025-11-10T21:47:13.411968",
    "MEAN_MOTION": 15.27573386,
    "ECCENTRICITY": 0.0001366,
    "INCLINATION": 42.9999,
    "RA_OF_ASC_NODE": 134.3361,
    "ARG_OF_PERICENTER": 255.1759,
    "MEAN_ANOMALY": 104.8941,
    "EPHEMERIS_TYPE": 0,
    "CLASSIFICATION_TYPE": "U",
    "NORAD_CAT_ID": 59738,
    "ELEMENT_SET_NO": 999,
    "REV_AT_EPOCH": 8527,
    "BSTAR": 0.0,
    "MEAN_MOTION_DOT": -2.074e-05,
    "MEAN_MOTION_DDOT": 0.0,
    "TLE_LINE1": "1 59738U 24090J   25314.90779412 -.00002074  00000+0 -65864-4 0  9998",
    "TLE_LINE2": "2 59738  42.9999 134.3361 0001366 255.1759 104.8941 15.27573386 85273",
    "COMMENT": "Grouped by shell and plane from TLE"
  },
  {
    "OBJECT_NAME": "STARLINK-31726",
    "OBJECT_ID": "24090K",
    "EPOCH": "2025-11-11T05:00:58.504608",
    "MEAN_MOTION": 15.27595257,
    "ECCENTRICITY": 8.29e-05,
    "INCLINATION": 42.9995,
    "RA_OF_ASC_NODE": 132.3049,
    "ARG_OF_PERICENTER": 261.8601,
    "MEAN_ANOMALY": 98.2157,
    "EPHEMERIS_TYPE": 0,
    "CLASSIFICATION_TYPE": "U",
    "NORAD_CAT_ID": 59739,
    "ELEMENT_SET_NO": 999,
    "REV_AT_EPOCH": 8532,
    "BSTAR": 0.0,
    "MEAN_MOTION_DOT": -1.167e-05,
    "MEAN_MOTION_DDOT": 0.0,
    "TLE_LINE1": "1 59739U 24090K   25315.20901047 -.00001167  00000+0 -32877-4 0  9994",
    "TLE_LINE2": "2 59739  42.9995 132.3049 0000829 261.8601  98.2157 15.27595257 85326",
    "COMMENT": "Grouped by shell and plane from TLE"
  },
  {
    "OBJECT_NAME": "STARLINK-31759",
    "OBJECT_ID": "24090L",
    "EPOCH": "2025-11-10T22:18:39.287232",
    "MEAN_MOTION": 15.27587021,
    "ECCENTRICITY": 9.05e-05,
    "INCLINATION": 42.998,
    "RA_OF_ASC_NODE": 134.503,
    "ARG_OF_PERICENTER": 264.008,
    "MEAN_ANOMALY": 96.0668,
    "EPHEMERIS_TYPE": 0,
    "CLASSIFICATION_TYPE": "U",
    "NORAD_CAT_ID": 59740,
    "ELEMENT_SET_NO": 999,
    "REV_AT_EPOCH": 8527,
    "BSTAR": 2.4666e-05,
    "MEAN_MOTION_DOT": 4.17e-06,
    "MEAN_MOTION_DDOT": 0.0,
    "TLE_LINE1": "1 59740U 24090L   25314.92962138  .00000417  00000+0  24666-4 0  9994",
    "TLE_LINE2": "2 59740  42.9980 134.5030 0000905 264.0080  96.0668 15.27587021 85274",
    "COMMENT": "Grouped by shell and plane from TLE"
  },
  {
    "OBJECT_NAME": "STARLINK-31818",
    "OBJECT_ID": "24090M",
    "EPOCH": "2025-11-11T04:24:11.138400",
    "MEAN_MOTION": 15.2758468,
    "ECCENTRICITY": 0.0001179,
    "INCLINATION": 43.0033,
    "RA_OF_ASC_NODE": 132.9701,
    "ARG_OF_PERICENTER": 261.4396,
    "MEAN_ANOMALY": 98.6322,
    "EPHEMERIS_TYPE": 0,
    "CLASSIFICATION_TYPE": "U",
    "NORAD_CAT_ID": 59741,
    "ELEMENT_SET_NO": 999,
    "REV_AT_EPOCH": 8531,
    "BSTAR": 7.9763e-05,
    "MEAN_MOTION_DOT": 1.934e-05,
    "MEAN_MOTION_DDOT": 0.0,
    "TLE_LINE1": "1 59741U 24090M   25315.18346225  .00001934  00000+0  79763-4 0  9990",
    "TLE_LINE2": "2 59741  43.0033 132.9701 0001179 261.4396  98.6322 15.27584680 85316",
    "COMMENT": "Grouped by shell and plane from TLE"
  },
  {
    "OBJECT_NAME": "STARLINK-31816",
    "OBJECT_ID": "24090N",
    "EPOCH": "2025-11-10T22:27:53.715168",
    "MEAN_MOTION": 15.2759949,
    "ECCENTRICITY": 0.0001338,
    "INCLINATION": 43.0004,
    "RA_OF_ASC_NODE": 134.5318,
    "ARG_OF_PERICENTER": 271.5489,
    "MEAN_ANOMALY": 88.5209,
    "EPHEMERIS_TYPE": 0,
    "CLASSIFICATION_TYPE": "U",
    "NORAD_CAT_ID": 59742,
    "ELEMENT_SET_NO": 999,
    "REV_AT_EPOCH": 8525,
    "BSTAR": 0.00028847000000000003,
    "MEAN_MOTION_DOT": 7.689e-05,
    "MEAN_MOTION_DDOT": 0.0,
    "TLE_LINE1": "1 59742U 24090N   25314.93603837  .00007689  00000+0  28847-3 0  9997",
    "TLE_LINE2": "2 59742  43.0004 134.5318 0001338 271.5489  88.5209 15.27599490 85259",
    "COMMENT": "Grouped by shell and plane from TLE"
  },
  {
    "OBJECT_NAME": "STARLINK-31779",
    "OBJECT_ID": "24090Q",
    "EPOCH": "2025-11-11T05:12:04.928544",
    "MEAN_MOTION": 15.27581551,
    "ECCENTRICITY": 0.0001227,
    "INCLINATION": 43.003,
    "RA_OF_ASC_NODE": 132.3649,
    "ARG_OF_PERICENTER": 271.2054,
    "MEAN_ANOMALY": 88.8657,
    "EPHEMERIS_TYPE": 0,
    "CLASSIFICATION_TYPE": "U",
    "NORAD_CAT_ID": 59744,
    "ELEMENT_SET_NO": 999,
    "REV_AT_EPOCH": 8532,
    "BSTAR": 5.1191e-05,
    "MEAN_MOTION_DOT": 1.147e-05,
    "MEAN_MOTION_DDOT": 0.0,
    "TLE_LINE1": "1 59744U 24090Q   25315.21672371  .00001147  00000+0  51191-4 0  9992",
    "TLE_LINE2": "2 59744  43.0030 132.3649 0001227 271.2054  88.8657 15.27581551 85322",
    "COMMENT": "Grouped by shell and plane from TLE"
  },
  {
    "OBJECT_NAME": "STARLINK-31805",
    "OBJECT_ID": "24090R",
    "EPOCH": "2025-11-10T21:04:36.775488",
    "MEAN_MOTION": 15.27596536,
    "ECCENTRICITY": 0.000358,
    "INCLINATION": 43.0065,
    "RA_OF_ASC_NODE": 134.1212,
    "ARG_OF_PERICENTER": 259.3423,
    "MEAN_ANOMALY": 100.7025,
    "EPHEMERIS_TYPE": 0,
    "CLASSIFICATION_TYPE": "U",
    "NORAD_CAT_ID": 59745,
    "ELEMENT_SET_NO": 999,
    "REV_AT_EPOCH": 8527,
    "BSTAR": 2.4779e-05,
    "MEAN_MOTION_DOT": 4.19e-06,
    "MEAN_MOTION_DDOT": 0.0,
    "TLE_LINE1": "1 59745U 24090R   25314.87820342  .00000419  00000+0  24779-4 0  9990",
    "TLE_LINE2": "2 59745  43.0065 134.1212 0003580 259.3423 100.7025 15.27596536 85274",
    "COMMENT": "Grouped by shell and plane from TLE"
  }
]